{"type": "FeatureCollection", "features": [ {"type": "Feature", "properties": {"norad_id": 35480, "name": "IRIDIUM 33 DEB", "group": "iridium-33-debris", "lat": 85.71536034374402, "lon": 142.441791845061, "alt_km": 708.0848981663858, "timestamp": "2025-12-22T11:33:20.825064+00:00", "meta": {"OBJECT_NAME": "IRIDIUM 33 DEB", "OBJECT_ID": "1997-051QA", "EPOCH": "2025-12-15T08:30:57.118464", "MEAN_MOTION": 14.49774703, "ECCENTRICITY": 0.00160032, "INCLINATION": 86.3571, "RA_OF_ASC_NODE": 23.7786, "ARG_OF_PERICENTER": 97.0457, "MEAN_ANOMALY": 263.2568, "EPHEMERIS_TYPE": 0, "CLASSIFICATION_TYPE": "U", "NORAD_CAT_ID": 35480, "ELEMENT_SET_NO": 999, "REV_AT_EPOCH": 87069, "BSTAR": 0.00045738518, "MEAN_MOTION_DOT": 1.785e-05, "MEAN_MOTION_DDOT": 0}, "tle": {"line1": "1 35480U 97051QA  25349.35482776  .00001785  00000+0  45739-3 0  9998", "line2": "2 35480  86.3571  23.7786 0016003  97.0457 263.2568 14.49774703870695"}}, "geometry": {"type": "Point", "coordinates": [142.441791845061, 85.71536034374402]}}, {"type": "Feature", "properties": {"norad_id": 35484, "name": "IRIDIUM 33 DEB", "group": "iridium-33-debris", "lat": 1.239185085876965, "lon": 168.1069273598501, "alt_km": 571.0080367621831, "timestamp": "2025-12-22T11:33:20.825081+00:00", "meta": {"OBJECT_NAME": "IRIDIUM 33 DEB", "OBJECT_ID": "1997-051QE", "EPOCH": "2025-12-20T05:53:50.544096", "MEAN_MOTION": 14.99070362, "ECCENTRICITY": 0.0024356, "INCLINATION": 86.3597, "RA_OF_ASC_NODE": 349.2325, "ARG_OF_PERICENTER": 101.4609, "MEAN_ANOMALY": 258.9359, "EPHEMERIS_TYPE": 0, "CLASSIFICATION_TYPE": "U", "NORAD_CAT_ID": 35484, "ELEMENT_SET_NO": 999, "REV_AT_EPOCH": 62128, "BSTAR": 0.0017572, "MEAN_MOTION_DOT": 0.00021521, "MEAN_MOTION_DDOT": 0}, "tle": {"line1": "1 35484U 97051QE  25354.24572389  .00021521  00000+0  17572-2 0  9999", "line2": "2 35484  86.3597 349.2325 0024356 101.4609 258.9359 14.99070362621284"}}, "geometry": {"type": "Point", "coordinates": [168.1069273598501, 1.239185085876965]}}, {"type": "Feature", "properties": {"norad_id": 35488, "name": "IRIDIUM 33 DEB", "group": "iridium-33-debris", "lat": 82.60043909661478, "lon": 86.71675338945178, "alt_km": 610.2221512740425, "timestamp": "2025-12-22T11:33:20.825091+00:00", "meta": {"OBJECT_NAME": "IRIDIUM 33 DEB", "OBJECT_ID": "1997-051QJ", "EPOCH": "2025-12-18T06:44:16.731744", "MEAN_MOTION": 14.83196659, "ECCENTRICITY": 0.00291507, "INCLINATION": 86.3243, "RA_OF_ASC_NODE": 298.3231, "ARG_OF_PERICENTER": 24.8223, "MEAN_ANOMALY": 335.4395, "EPHEMERIS_TYPE": 0, "CLASSIFICATION_TYPE": "U", "NORAD_CAT_ID": 35488, "ELEMENT_SET_NO": 999, "REV_AT_EPOCH": 88348, "BSTAR": 0.0014098178, "MEAN_MOTION_DOT": 0.00011627, "MEAN_MOTION_DDOT": 0}, "tle": {"line1": "1 35488U 97051QJ  25352.28074921  .00011627  00000+0  14098-2 0  9990", "line2": "2 35488  86.3243 298.3231 0029150  24.8223 335.4395 14.83196659883487"}}, "geometry": {"type": "Point", "coordinates": [86.71675338945178, 82.60043909661478]}}, {"type": "Feature", "properties": {"norad_id": 35616, "name": "IRIDIUM 33 DEB", "group": "iridium-33-debris", "lat": -31.71928517144907, "lon": 163.57565242168783, "alt_km": 627.7624657651486, "timestamp": "2025-12-22T11:33:20.825102+00:00", "meta": {"OBJECT_NAME": "IRIDIUM 33 DEB", "OBJECT_ID": "1997-051QN", "EPOCH": "2025-12-21T16:46:45.287328", "MEAN_MOTION": 14.82015021, "ECCENTRICITY": 0.0011409, "INCLINATION": 86.3545, "RA_OF_ASC_NODE": 341.6744, "ARG_OF_PERICENTER": 134.0095, "MEAN_ANOMALY": 226.2069, "EPHEMERIS_TYPE": 0, "CLASSIFICATION_TYPE": "U", "NORAD_CAT_ID": 35616, "ELEMENT_SET_NO": 999, "REV_AT_EPOCH": 87707, "BSTAR": 0.0013755, "MEAN_MOTION_DOT": 0.00010957, "MEAN_MOTION_DDOT": 0}, "tle": {"line1": "1 35616U 97051QN  25355.69913527  .00010957  00000+0  13755-2 0  9999", "line2": "2 35616  86.3545 341.6744 0011409 134.0095 226.2069 14.82015021877070"}}, "geometry": {"type": "Point", "coordinates": [163.57565242168783, -31.71928517144907]}}, {"type": "Feature", "properties": {"norad_id": 35618, "name": "IRIDIUM 33 DEB", "group": "iridium-33-debris", "lat": 20.330957778964574, "lon": -9.395693213684714, "alt_km": 700.9477039383983, "timestamp": "2025-12-22T11:33:20.825116+00:00", "meta": {"OBJECT_NAME": "IRIDIUM 33 DEB", "OBJECT_ID": "1997-051QQ", "EPOCH": "2025-12-21T17:16:24.492288", "MEAN_MOTION": 14.52331103, "ECCENTRICITY": 0.0028415, "INCLINATION": 86.341, "RA_OF_ASC_NODE": 349.5786, "ARG_OF_PERICENTER": 351.4344, "MEAN_ANOMALY": 8.6373, "EPHEMERIS_TYPE": 0, "CLASSIFICATION_TYPE": "U", "NORAD_CAT_ID": 35618, "ELEMENT_SET_NO": 999, "REV_AT_EPOCH": 65524, "BSTAR": 0.0003905, "MEAN_MOTION_DOT": 1.617e-05, "MEAN_MOTION_DDOT": 0}, "tle": {"line1": "1 35618U 97051QQ  25355.71972792  .00001617  00000+0  39050-3 0  9993", "line2": "2 35618  86.3410 349.5786 0028415 351.4344   8.6373 14.52331103655245"}}, "geometry": {"type": "Point", "coordinates": [-9.395693213684714, 20.330957778964574]}}, {"type": "Feature", "properties": {"norad_id": 35620, "name": "IRIDIUM 33 DEB", "group": "iridium-33-debris", "lat": -48.998643293846115, "lon": 37.509041769672166, "alt_km": 671.3582595081789, "timestamp": "2025-12-22T11:33:20.825135+00:00", "meta": {"OBJECT_NAME": "IRIDIUM 33 DEB", "OBJECT_ID": "1997-051QS", "EPOCH": "2025-12-18T07:58:30.597312", "MEAN_MOTION": 14.38231155, "ECCENTRICITY": 0.01396071, "INCLINATION": 86.3909, "RA_OF_ASC_NODE": 215.0948, "ARG_OF_PERICENTER": 240.37, "MEAN_ANOMALY": 118.3533, "EPHEMERIS_TYPE": 0, "CLASSIFICATION_TYPE": "U", "NORAD_CAT_ID": 35620, "ELEMENT_SET_NO": 999, "REV_AT_EPOCH": 60046, "BSTAR": 0.0042608437, "MEAN_MOTION_DOT": 0.00014532, "MEAN_MOTION_DDOT": 0}, "tle": {"line1": "1 35620U 97051QS  25352.33229858  .00014532  00000+0  42608-2 0  9991", "line2": "2 35620  86.3909 215.0948 0139607 240.3700 118.3533 14.38231155600467"}}, "geometry": {"type": "Point", "coordinates": [37.509041769672166, -48.998643293846115]}}, {"type": "Feature", "properties": {"norad_id": 35622, "name": "IRIDIUM 33 DEB", "group": "iridium-33-debris", "lat": 38.546794903648085, "lon": 75.76592878674724, "alt_km": 549.1009993282523, "timestamp": "2025-12-22T11:33:20.825148+00:00", "meta": {"OBJECT_NAME": "IRIDIUM 33 DEB", "OBJECT_ID": "1997-051QU", "EPOCH": "2025-12-21T17:30:45.499392", "MEAN_MOTION": 15.05595388, "ECCENTRICITY": 0.0003879, "INCLINATION": 86.2019, "RA_OF_ASC_NODE": 259.171, "ARG_OF_PERICENTER": 296.3658, "MEAN_ANOMALY": 92.7099, "EPHEMERIS_TYPE": 0, "CLASSIFICATION_TYPE": "U", "NORAD_CAT_ID": 35622, "ELEMENT_SET_NO": 999, "REV_AT_EPOCH": 87495, "BSTAR": 0.0033234, "MEAN_MOTION_DOT": 0.00048189, "MEAN_MOTION_DDOT": 0}, "tle": {"line1": "1 35622U 97051QU  25355.72969328  .00048189  00000+0  33234-2 0  9992", "line2": "2 35622  86.2019 259.1710 0003879 296.3658  92.7099 15.05595388874955"}}, "geometry": {"type": "Point", "coordinates": [75.76592878674724, 38.546794903648085]}}, {"type": "Feature", "properties": {"norad_id": 35628, "name": "IRIDIUM 33 DEB", "group": "iridium-33-debris", "lat": 84.19702646310968, "lon": 145.8985810477991, "alt_km": 666.7257951537849, "timestamp": "2025-12-22T11:33:20.825158+00:00", "meta": {"OBJECT_NAME": "IRIDIUM 33 DEB", "OBJECT_ID": "1997-051RA", "EPOCH": "2025-12-20T06:45:55.793664", "MEAN_MOTION": 14.67680924, "ECCENTRICITY": 0.00096368, "INCLINATION": 86.3562, "RA_OF_ASC_NODE": 5.7112, "ARG_OF_PERICENTER": 314.2717, "MEAN_ANOMALY": 45.7705, "EPHEMERIS_TYPE": 0, "CLASSIFICATION_TYPE": "U", "NORAD_CAT_ID": 35628, "ELEMENT_SET_NO": 999, "REV_AT_EPOCH": 86557, "BSTAR": 0.00085133469, "MEAN_MOTION_DOT": 4.868e-05, "MEAN_MOTION_DDOT": 0}, "tle": {"line1": "1 35628U 97051RA  25354.28189576  .00004868  00000+0  85133-3 0  9999", "line2": "2 35628  86.3562   5.7112 0009636 314.2717  45.7705 14.67680924865577"}}, "geometry": {"type": "Point", "coordinates": [145.8985810477991, 84.19702646310968]}}, {"type": "Feature", "properties": {"norad_id": 35631, "name": "IRIDIUM 33 DEB", "group": "iridium-33-debris", "lat": -1.5571518653252725, "lon": 16.68146427171629, "alt_km": 737.6303113764134, "timestamp": "2025-12-22T11:33:20.825169+00:00", "meta": {"OBJECT_NAME": "IRIDIUM 33 DEB", "OBJECT_ID": "1997-051RD", "EPOCH": "2025-12-21T13:02:16.005120", "MEAN_MOTION": 14.47332773, "ECCENTRICITY": 0.00192, "INCLINATION": 86.3662, "RA_OF_ASC_NODE": 17.1844, "ARG_OF_PERICENTER": 91.7659, "MEAN_ANOMALY": 61.4804, "EPHEMERIS_TYPE": 0, "CLASSIFICATION_TYPE": "U", "NORAD_CAT_ID": 35631, "ELEMENT_SET_NO": 999, "REV_AT_EPOCH": 87324, "BSTAR": 0.00027951, "MEAN_MOTION_DOT": 1.046e-05, "MEAN_MOTION_DDOT": 0}, "tle": {"line1": "1 35631U 97051RD  25355.54324080  .00001046  00000+0  27951-3 0  9993", "line2": "2 35631  86.3662  17.1844 0019200  91.7659  61.4804 14.47332773873243"}}, "geometry": {"type": "Point", "coordinates": [16.68146427171629, -1.5571518653252725]}}, {"type": "Feature", "properties": {"norad_id": 35680, "name": "IRIDIUM 33 DEB", "group": "iridium-33-debris", "lat": 53.47927224702574, "lon": -168.07224091129817, "alt_km": 871.5253531635317, "timestamp": "2025-12-22T11:33:20.825179+00:00", "meta": {"OBJECT_NAME": "IRIDIUM 33 DEB", "OBJECT_ID": "1997-051RJ", "EPOCH": "2025-12-21T07:58:47.283744", "MEAN_MOTION": 14.2104558, "ECCENTRICITY": 0.0150556, "INCLINATION": 86.1025, "RA_OF_ASC_NODE": 17.7185, "ARG_OF_PERICENTER": 250.9856, "MEAN_ANOMALY": 122.3959, "EPHEMERIS_TYPE": 0, "CLASSIFICATION_TYPE": "U", "NORAD_CAT_ID": 35680, "ELEMENT_SET_NO": 999, "REV_AT_EPOCH": 60823, "BSTAR": 0.0026505, "MEAN_MOTION_DOT": 6.465e-05, "MEAN_MOTION_DDOT": 0}, "tle": {"line1": "1 35680U 97051RJ  25355.33249171  .00006465  00000+0  26505-2 0  9994", "line2": "2 35680  86.1025  17.7185 0150556 250.9856 122.3959 14.21045580608232"}}, "geometry": {"type": "Point", "coordinates": [-168.07224091129817, 53.47927224702574]}}]}